{"type": "FeatureCollection", "features": [ {"type": "Feature", "properties": {"norad_id": 31211, "name": "FENGYUN 1C DEB", "group": "fengyun-1c-debris", "lat": -34.228311666682416, "lon": -159.3170468456829, "alt_km": 857.8689874767379, "timestamp": "2025-12-16T19:34:24.548795+00:00", "meta": {"OBJECT_NAME": "FENGYUN 1C DEB", "OBJECT_ID": "1999-025BKR", "EPOCH": "2025-12-13T21:14:20.909472", "MEAN_MOTION": 14.20060209, "ECCENTRICITY": 0.00507722, "INCLINATION": 98.6733, "RA_OF_ASC_NODE": 23.7713, "ARG_OF_PERICENTER": 86.1376, "MEAN_ANOMALY": 274.5603, "EPHEMERIS_TYPE": 0, "CLASSIFICATION_TYPE": "U", "NORAD_CAT_ID": 31211, "ELEMENT_SET_NO": 999, "REV_AT_EPOCH": 63309, "BSTAR": 0.0012518194, "MEAN_MOTION_DOT": 2.658e-05, "MEAN_MOTION_DDOT": 0}, "tle": {"line1": "1 31211U 99025BKR 25347.88496423  .00002658  00000+0  12518-2 0  9997", "line2": "2 31211  98.6733  23.7713 0050772  86.1376 274.5603 14.20060209633093"}}, "geometry": {"type": "Point", "coordinates": [-159.3170468456829, -34.228311666682416]}}, {"type": "Feature", "properties": {"norad_id": 31212, "name": "FENGYUN 1C DEB", "group": "fengyun-1c-debris", "lat": 80.74988028968922, "lon": -71.82969978657611, "alt_km": 822.167900253773, "timestamp": "2025-12-16T19:34:24.548805+00:00", "meta": {"OBJECT_NAME": "FENGYUN 1C DEB", "OBJECT_ID": "1999-025BKS", "EPOCH": "2025-12-14T12:45:56.653344", "MEAN_MOTION": 14.13124373, "ECCENTRICITY": 0.00752745, "INCLINATION": 99.2196, "RA_OF_ASC_NODE": 20.0508, "ARG_OF_PERICENTER": 167.0098, "MEAN_ANOMALY": 193.3035, "EPHEMERIS_TYPE": 0, "CLASSIFICATION_TYPE": "U", "NORAD_CAT_ID": 31212, "ELEMENT_SET_NO": 999, "REV_AT_EPOCH": 95684, "BSTAR": 0.0014706798, "MEAN_MOTION_DOT": 2.778e-05, "MEAN_MOTION_DDOT": 0}, "tle": {"line1": "1 31212U 99025BKS 25348.53190571  .00002778  00000+0  14707-2 0  9991", "line2": "2 31212  99.2196  20.0508 0075274 167.0098 193.3035 14.13124373956843"}}, "geometry": {"type": "Point", "coordinates": [-71.82969978657611, 80.74988028968922]}}, {"type": "Feature", "properties": {"norad_id": 31215, "name": "FENGYUN 1C DEB", "group": "fengyun-1c-debris", "lat": 16.298219274252297, "lon": -167.60583770848572, "alt_km": 757.5222496127626, "timestamp": "2025-12-16T19:34:24.548815+00:00", "meta": {"OBJECT_NAME": "FENGYUN 1C DEB", "OBJECT_ID": "1999-025BKV", "EPOCH": "2025-12-15T08:19:35.240160", "MEAN_MOTION": 14.33803054, "ECCENTRICITY": 0.00700435, "INCLINATION": 99.0713, "RA_OF_ASC_NODE": 193.5324, "ARG_OF_PERICENTER": 316.6718, "MEAN_ANOMALY": 42.897, "EPHEMERIS_TYPE": 0, "CLASSIFICATION_TYPE": "U", "NORAD_CAT_ID": 31215, "ELEMENT_SET_NO": 999, "REV_AT_EPOCH": 96563, "BSTAR": 0.00074953738, "MEAN_MOTION_DOT": 2.094e-05, "MEAN_MOTION_DDOT": 0}, "tle": {"line1": "1 31215U 99025BKV 25349.34693565  .00002094  00000+0  74954-3 0  9997", "line2": "2 31215  99.0713 193.5324 0070043 316.6718  42.8970 14.33803054965636"}}, "geometry": {"type": "Point", "coordinates": [-167.60583770848572, 16.298219274252297]}}, {"type": "Feature", "properties": {"norad_id": 31217, "name": "FENGYUN 1C DEB", "group": "fengyun-1c-debris", "lat": -66.21307403556284, "lon": 18.7700700200709, "alt_km": 898.8250587995317, "timestamp": "2025-12-16T19:34:24.548828+00:00", "meta": {"OBJECT_NAME": "FENGYUN 1C DEB", "OBJECT_ID": "1999-025BKX", "EPOCH": "2025-12-15T18:29:17.201472", "MEAN_MOTION": 14.17544866, "ECCENTRICITY": 0.00998135, "INCLINATION": 98.6404, "RA_OF_ASC_NODE": 357.5739, "ARG_OF_PERICENTER": 151.3509, "MEAN_ANOMALY": 209.3201, "EPHEMERIS_TYPE": 0, "CLASSIFICATION_TYPE": "U", "NORAD_CAT_ID": 31217, "ELEMENT_SET_NO": 999, "REV_AT_EPOCH": 96391, "BSTAR": 0.0005438145, "MEAN_MOTION_DOT": 1.117e-05, "MEAN_MOTION_DDOT": 0}, "tle": {"line1": "1 31217U 99025BKX 25349.77033798  .00001117  00000+0  54381-3 0  9999", "line2": "2 31217  98.6404 357.5739 0099813 151.3509 209.3201 14.17544866963911"}}, "geometry": {"type": "Point", "coordinates": [18.7700700200709, -66.21307403556284]}}, {"type": "Feature", "properties": {"norad_id": 31218, "name": "FENGYUN 1C DEB", "group": "fengyun-1c-debris", "lat": -79.79251282279013, "lon": 161.1733557979556, "alt_km": 661.9622510369472, "timestamp": "2025-12-16T19:34:24.548838+00:00", "meta": {"OBJECT_NAME": "FENGYUN 1C DEB", "OBJECT_ID": "1999-025BKY", "EPOCH": "2025-12-15T06:27:09.232704", "MEAN_MOTION": 14.72620878, "ECCENTRICITY": 0.00115959, "INCLINATION": 98.8419, "RA_OF_ASC_NODE": 99.6682, "ARG_OF_PERICENTER": 24.9683, "MEAN_ANOMALY": 335.2081, "EPHEMERIS_TYPE": 0, "CLASSIFICATION_TYPE": "U", "NORAD_CAT_ID": 31218, "ELEMENT_SET_NO": 999, "REV_AT_EPOCH": 97120, "BSTAR": 0.0027136999, "MEAN_MOTION_DOT": 0.00017278, "MEAN_MOTION_DDOT": 0}, "tle": {"line1": "1 31218U 99025BKY 25349.26885686  .00017278  00000+0  27137-2 0  9998", "line2": "2 31218  98.8419  99.6682 0011595  24.9683 335.2081 14.72620878971205"}}, "geometry": {"type": "Point", "coordinates": [161.1733557979556, -79.79251282279013]}}, {"type": "Feature", "properties": {"norad_id": 31219, "name": "FENGYUN 1C DEB", "group": "fengyun-1c-debris", "lat": -5.5650930122968925, "lon": 1.743136023296208, "alt_km": 906.4603270919833, "timestamp": "2025-12-16T19:34:24.548848+00:00", "meta": {"OBJECT_NAME": "FENGYUN 1C DEB", "OBJECT_ID": "1999-025BKZ", "EPOCH": "2025-12-14T18:20:38.656320", "MEAN_MOTION": 14.13798373, "ECCENTRICITY": 0.00791314, "INCLINATION": 99.2837, "RA_OF_ASC_NODE": 358.7011, "ARG_OF_PERICENTER": 171.5473, "MEAN_ANOMALY": 188.7052, "EPHEMERIS_TYPE": 0, "CLASSIFICATION_TYPE": "U", "NORAD_CAT_ID": 31219, "ELEMENT_SET_NO": 999, "REV_AT_EPOCH": 95598, "BSTAR": 0.001362468, "MEAN_MOTION_DOT": 2.61e-05, "MEAN_MOTION_DDOT": 0}, "tle": {"line1": "1 31219U 99025BKZ 25348.76433630  .00002610  00000+0  13625-2 0  9992", "line2": "2 31219  99.2837 358.7011 0079131 171.5473 188.7052 14.13798373955983"}}, "geometry": {"type": "Point", "coordinates": [1.743136023296208, -5.5650930122968925]}}, {"type": "Feature", "properties": {"norad_id": 31222, "name": "FENGYUN 1C DEB", "group": "fengyun-1c-debris", "lat": -28.674945696672193, "lon": 65.96273317559027, "alt_km": 567.416708013925, "timestamp": "2025-12-16T19:34:24.548858+00:00", "meta": {"OBJECT_NAME": "FENGYUN 1C DEB", "OBJECT_ID": "1999-025BLC", "EPOCH": "2025-12-15T03:37:14.252160", "MEAN_MOTION": 14.97861528, "ECCENTRICITY": 0.01704456, "INCLINATION": 98.6122, "RA_OF_ASC_NODE": 59.3724, "ARG_OF_PERICENTER": 61.7291, "MEAN_ANOMALY": 300.1013, "EPHEMERIS_TYPE": 0, "CLASSIFICATION_TYPE": "U", "NORAD_CAT_ID": 31222, "ELEMENT_SET_NO": 999, "REV_AT_EPOCH": 19, "BSTAR": 0.00040388104, "MEAN_MOTION_DOT": 6.338e-05, "MEAN_MOTION_DDOT": 0}, "tle": {"line1": "1 31222U 99025BLC 25349.15085940  .00006338  00000+0  40388-3 0  9995", "line2": "2 31222  98.6122  59.3724 0170445  61.7291 300.1013 14.97861528   196"}}, "geometry": {"type": "Point", "coordinates": [65.96273317559027, -28.674945696672193]}}, {"type": "Feature", "properties": {"norad_id": 31223, "name": "FENGYUN 1C DEB", "group": "fengyun-1c-debris", "lat": 60.897716767047314, "lon": 73.4728195019717, "alt_km": 956.1205881066062, "timestamp": "2025-12-16T19:34:24.548868+00:00", "meta": {"OBJECT_NAME": "FENGYUN 1C DEB", "OBJECT_ID": "1999-025BLD", "EPOCH": "2025-12-15T15:07:41.626560", "MEAN_MOTION": 13.7726206, "ECCENTRICITY": 0.02431432, "INCLINATION": 99.0059, "RA_OF_ASC_NODE": 235.796, "ARG_OF_PERICENTER": 33.1892, "MEAN_ANOMALY": 328.425, "EPHEMERIS_TYPE": 0, "CLASSIFICATION_TYPE": "U", "NORAD_CAT_ID": 31223, "ELEMENT_SET_NO": 999, "REV_AT_EPOCH": 92768, "BSTAR": 0.0020883468, "MEAN_MOTION_DOT": 2.535e-05, "MEAN_MOTION_DDOT": 0}, "tle": {"line1": "1 31223U 99025BLD 25349.63034290  .00002535  00000+0  20883-2 0  9993", "line2": "2 31223  99.0059 235.7960 0243143  33.1892 328.4250 13.77262060927680"}}, "geometry": {"type": "Point", "coordinates": [73.4728195019717, 60.897716767047314]}}, {"type": "Feature", "properties": {"norad_id": 31224, "name": "FENGYUN 1C DEB", "group": "fengyun-1c-debris", "lat": 0.6844187161556898, "lon": -17.553063982190046, "alt_km": 896.1158976351853, "timestamp": "2025-12-16T19:34:24.548878+00:00", "meta": {"OBJECT_NAME": "FENGYUN 1C DEB", "OBJECT_ID": "1999-025BLE", "EPOCH": "2025-12-14T17:59:50.881344", "MEAN_MOTION": 14.28898926, "ECCENTRICITY": 0.01581604, "INCLINATION": 98.3699, "RA_OF_ASC_NODE": 340.5641, "ARG_OF_PERICENTER": 156.9527, "MEAN_ANOMALY": 24.9873, "EPHEMERIS_TYPE": 0, "CLASSIFICATION_TYPE": "U", "NORAD_CAT_ID": 31224, "ELEMENT_SET_NO": 999, "REV_AT_EPOCH": 69279, "BSTAR": 0.00033508594, "MEAN_MOTION_DOT": 9.25e-06, "MEAN_MOTION_DDOT": 0}, "tle": {"line1": "1 31224U 99025BLE 25348.74989446  .00000925  00000+0  33509-3 0  9998", "line2": "2 31224  98.3699 340.5641 0158160 156.9527  24.9873 14.28898926692790"}}, "geometry": {"type": "Point", "coordinates": [-17.553063982190046, 0.6844187161556898]}}, {"type": "Feature", "properties": {"norad_id": 31225, "name": "FENGYUN 1C DEB", "group": "fengyun-1c-debris", "lat": -79.39040969692651, "lon": -173.59181422214925, "alt_km": 823.3095421295984, "timestamp": "2025-12-16T19:34:24.548888+00:00", "meta": {"OBJECT_NAME": "FENGYUN 1C DEB", "OBJECT_ID": "1999-025BLF", "EPOCH": "2025-12-13T16:31:44.944896", "MEAN_MOTION": 14.17865231, "ECCENTRICITY": 0.00880507, "INCLINATION": 98.9898, "RA_OF_ASC_NODE": 60.9263, "ARG_OF_PERICENTER": 348.6479, "MEAN_ANOMALY": 165.0343, "EPHEMERIS_TYPE": 0, "CLASSIFICATION_TYPE": "U", "NORAD_CAT_ID": 31225, "ELEMENT_SET_NO": 999, "REV_AT_EPOCH": 95835, "BSTAR": 0.0016013997, "MEAN_MOTION_DOT": 3.354e-05, "MEAN_MOTION_DDOT": 0}, "tle": {"line1": "1 31225U 99025BLF 25347.68871464  .00003354  00000+0  16014-2 0  9991", "line2": "2 31225  98.9898  60.9263 0088050 348.6479 165.0343 14.17865231958354"}}, "geometry": {"type": "Point", "coordinates": [-173.59181422214925, -79.39040969692651]}}]}